0 FENGYUN 1C DEB
1 31414U 99025BTA 13281.17230549  .00003573  00000-0  12766-2 0  2944
2 31414 098.6558 254.0421 0087685 274.2675 084.8421 14.32604103339816
0 FENGYUN 1C DEB
1 31414U 99025BTA 13283.12789632  .00003551  00000-0  12684-2 0  2959
2 31414 098.6542 255.9912 0087498 268.5963 090.5091 14.32617805340094
0 FENGYUN 1C DEB
1 31414U 99025BTA 13284.17552879  .00003601  00000-0  12861-2 0  2960
2 31414 098.6561 257.0431 0087442 265.3413 093.7908 14.32626102340247
0 FENGYUN 1C DEB
1 31414U 99025BTA 13287.17869903  .00003712  00000-0  13249-2 0  2977
2 31414 098.6560 260.0436 0087032 256.4634 102.6884 14.32650136340670
0 FENGYUN 1C DEB
1 31414U 99025BTA 13287.73742358  .00003770  00000-0  13473-2 0  2987
2 31414 098.6581 260.6066 0085437 253.8241 105.3682 14.32655308340751
0 FENGYUN 1C DEB
1 31414U 99025BTA 13289.13422655  .00004045  00000-0  14411-2 0  2998
2 31414 098.6518 261.9812 0087369 252.0843 107.1308 14.32670915340957
0 FENGYUN 1C DEB
1 31414U 99025BTA 13291.71826912  .00004345  00000-0  15461-2 0  3001
2 31414 098.6575 264.5762 0087436 241.5265 117.7871 14.32696977341329
0 FENGYUN 1C DEB
1 31414U 99025BTA 13293.11502146  .00004604  00000-0  16359-2 0  3013
2 31414 098.6555 265.9606 0087904 238.6057 120.6846 14.32713163341529
0 FENGYUN 1C DEB
1 31414U 99025BTA 13295.14030148  .00004649  00000-0  16512-2 0  3027
2 31414 098.6564 267.9879 0087792 232.4729 126.8484 14.32732470341816
